start=new Date('2022-01-22T00:00:00.000Z').valueOf();
sats=[{"DECAY_DATE":null,"INCLINATION":"53.0541","TIME_SYSTEM":"UTC","LAUNCH_DATE":"2021-03-24","FILE":"3279324","CENTER_NAME":"EARTH","OBJECT_TYPE":"PAYLOAD","ECCENTRICITY":"0.00018900","MEAN_MOTION_DDOT":"0.0000000000000","RA_OF_ASC_NODE":"196.7713","TLE_LINE1":"1 48028U 21024BD  22021.58334491 -.00020721  00000-0 -13757-2 0  9994","MEAN_MOTION_DOT":"-0.00020721","EPOCH":"2022-01-21T14:00:01.000224","OBJECT_NAME":"STARLINK-2264","COUNTRY_CODE":"US","ARG_OF_PERICENTER":"78.2366","MEAN_ELEMENT_THEORY":"SGP4","NORAD_CAT_ID":"48028","SITE":"AFETR","MEAN_ANOMALY":"140.8781","REV_AT_EPOCH":"360","OBJECT_ID":"2021-024BD","SEMIMAJOR_AXIS":"6925.310","TLE_LINE2":"2 48028  53.0541 196.7713 0001890  78.2366 140.8781 15.06412648  3601","REF_FRAME":"TEME","APOAPSIS":"548.484","BSTAR":"-0.00137570000000","MEAN_MOTION":"15.06412648","PERIAPSIS":"545.866","RCS_SIZE":"LARGE","PERIOD":"95.591","ELEMENT_SET_NO":"999","EPHEMERIS_TYPE":"0","CLASSIFICATION_TYPE":"U","GP_ID":"194329285"},{"MEAN_MOTION_DOT":"0.00004080","OBJECT_NAME":"STARLINK-2299","EPOCH":"2022-01-21T13:39:45.201024","INCLINATION":"53.0524","DECAY_DATE":null,"TIME_SYSTEM":"UTC","FILE":"3279324","LAUNCH_DATE":"2021-03-24","OBJECT_TYPE":"PAYLOAD","CENTER_NAME":"EARTH","ECCENTRICITY":"0.00018760","MEAN_MOTION_DDOT":"0.0000000000000","TLE_LINE1":"1 48029U 21024BE  22021.56927316  .00004080  00000-0  29256-3 0  9997","RA_OF_ASC_NODE":"261.8489","TLE_LINE2":"2 48029  53.0524 261.8489 0001876  72.0315 288.0879 15.06408509 47328","REF_FRAME":"TEME","APOAPSIS":"548.487","BSTAR":"0.00029256000000","MEAN_MOTION":"15.06408509","RCS_SIZE":"LARGE","PERIAPSIS":"545.888","PERIOD":"95.592","ELEMENT_SET_NO":"999","EPHEMERIS_TYPE":"0","GP_ID":"194328535","CLASSIFICATION_TYPE":"U","COUNTRY_CODE":"US","ARG_OF_PERICENTER":"72.0315","NORAD_CAT_ID":"48029","MEAN_ELEMENT_THEORY":"SGP4","SITE":"AFETR","MEAN_ANOMALY":"288.0879","REV_AT_EPOCH":"4732","OBJECT_ID":"2021-024BE","SEMIMAJOR_AXIS":"6925.322"},{"DECAY_DATE":null,"INCLINATION":"53.0531","OBJECT_TYPE":"PAYLOAD","CENTER_NAME":"EARTH","FILE":"3279324","LAUNCH_DATE":"2021-03-24","TIME_SYSTEM":"UTC","RA_OF_ASC_NODE":"267.5937","TLE_LINE1":"1 48030U 21024BF  22021.39741703  .00004957  00000-0  35138-3 0  9993","MEAN_MOTION_DDOT":"0.0000000000000","ECCENTRICITY":"0.00018480","MEAN_MOTION_DOT":"0.00004957","EPOCH":"2022-01-21T09:32:16.831392","OBJECT_NAME":"STARLINK-2268","SITE":"AFETR","MEAN_ANOMALY":"295.7619","MEAN_ELEMENT_THEORY":"SGP4","COUNTRY_CODE":"US","NORAD_CAT_ID":"48030","ARG_OF_PERICENTER":"64.3561","REV_AT_EPOCH":"4716","OBJECT_ID":"2021-024BF","SEMIMAJOR_AXIS":"6925.329","MEAN_MOTION":"15.06406527","BSTAR":"0.00035138000000","APOAPSIS":"548.473","REF_FRAME":"TEME","TLE_LINE2":"2 48030  53.0531 267.5937 0001848  64.3561 295.7619 15.06406527 47162","ELEMENT_SET_NO":"999","PERIOD":"95.592","RCS_SIZE":"LARGE","PERIAPSIS":"545.914","CLASSIFICATION_TYPE":"U","GP_ID":"194328281","EPHEMERIS_TYPE":"0"},{"OBJECT_NAME":"STARLINK-2267","EPOCH":"2022-01-21T22:00:00.999936","MEAN_MOTION_DOT":"-0.00003637","CENTER_NAME":"EARTH","OBJECT_TYPE":"PAYLOAD","FILE":"3279433","LAUNCH_DATE":"2021-03-24","TIME_SYSTEM":"UTC","DECAY_DATE":null,"INCLINATION":"53.0507","RA_OF_ASC_NODE":"150.2777","TLE_LINE1":"1 48031U 21024BG  22021.91667824 -.00003637  00000-0 -22549-3 0  9991","MEAN_MOTION_DDOT":"0.0000000000000","ECCENTRICITY":"0.00015570","ELEMENT_SET_NO":"999","PERIOD":"95.593","PERIAPSIS":"546.173","RCS_SIZE":"LARGE","MEAN_MOTION":"15.06387841","BSTAR":"-0.00022549000000","APOAPSIS":"548.329","REF_FRAME":"TEME","TLE_LINE2":"2 48031  53.0507 150.2777 0001557  57.7851  32.4439 15.06387841 48389","GP_ID":"194334983","CLASSIFICATION_TYPE":"U","EPHEMERIS_TYPE":"0","REV_AT_EPOCH":"4838","SITE":"AFETR","MEAN_ANOMALY":"32.4439","COUNTRY_CODE":"US","MEAN_ELEMENT_THEORY":"SGP4","ARG_OF_PERICENTER":"57.7851","NORAD_CAT_ID":"48031","SEMIMAJOR_AXIS":"6925.386","OBJECT_ID":"2021-024BG"},{"REV_AT_EPOCH":"4729","COUNTRY_CODE":"US","ARG_OF_PERICENTER":"63.3692","MEAN_ELEMENT_THEORY":"SGP4","NORAD_CAT_ID":"48033","MEAN_ANOMALY":"296.7515","SITE":"AFETR","SEMIMAJOR_AXIS":"6925.370","OBJECT_ID":"2021-024BJ","RCS_SIZE":"LARGE","PERIAPSIS":"545.760","PERIOD":"95.593","ELEMENT_SET_NO":"999","TLE_LINE2":"2 48033  53.0597 262.6903 0002131  63.3692 296.7515 15.06392895 47298","REF_FRAME":"TEME","APOAPSIS":"548.711","BSTAR":"0.00008296000000","MEAN_MOTION":"15.06392895","EPHEMERIS_TYPE":"0","CLASSIFICATION_TYPE":"U","GP_ID":"194329785","TIME_SYSTEM":"UTC","LAUNCH_DATE":"2021-03-24","FILE":"3279324","CENTER_NAME":"EARTH","OBJECT_TYPE":"PAYLOAD","INCLINATION":"53.0597","DECAY_DATE":null,"ECCENTRICITY":"0.00021310","MEAN_MOTION_DDOT":"0.0000000000000","RA_OF_ASC_NODE":"262.6903","TLE_LINE1":"1 48033U 21024BJ  22021.35916628  .00000954  00000-0  82960-4 0  9991","OBJECT_NAME":"STARLINK-2286","EPOCH":"2022-01-21T08:37:11.966592","MEAN_MOTION_DOT":"0.00000954"},{"ECCENTRICITY":"0.00018340","MEAN_MOTION_DDOT":"0.0000000000000","RA_OF_ASC_NODE":"262.7025","TLE_LINE1":"1 48034U 21024BK  22021.37760635  .00004329  00000-0  30932-3 0  9990","TIME_SYSTEM":"UTC","FILE":"3279324","LAUNCH_DATE":"2021-03-24","CENTER_NAME":"EARTH","OBJECT_TYPE":"PAYLOAD","INCLINATION":"53.0523","DECAY_DATE":null,"OBJECT_NAME":"STARLINK-2288","EPOCH":"2022-01-21T09:03:45.188640","MEAN_MOTION_DOT":"0.00004329","OBJECT_ID":"2021-024BK","SEMIMAJOR_AXIS":"6925.329","REV_AT_EPOCH":"4729","COUNTRY_CODE":"US","MEAN_ELEMENT_THEORY":"SGP4","ARG_OF_PERICENTER":"68.1182","NORAD_CAT_ID":"48034","SITE":"AFETR","MEAN_ANOMALY":"292.0002","EPHEMERIS_TYPE":"0","CLASSIFICATION_TYPE":"U","GP_ID":"194328036","RCS_SIZE":"LARGE","PERIAPSIS":"545.924","PERIOD":"95.592","ELEMENT_SET_NO":"999","TLE_LINE2":"2 48034  53.0523 262.7025 0001834  68.1182 292.0002 15.06406237 47296","APOAPSIS":"548.465","REF_FRAME":"TEME","BSTAR":"0.00030932000000","MEAN_MOTION":"15.06406237"},{"TLE_LINE1":"1 48036U 21024BM  22021.38498083  .00002198  00000-0  16642-3 0  9992","RA_OF_ASC_NODE":"262.6668","MEAN_MOTION_DDOT":"0.0000000000000","ECCENTRICITY":"0.00017960","DECAY_DATE":null,"INCLINATION":"53.0547","OBJECT_TYPE":"PAYLOAD","CENTER_NAME":"EARTH","FILE":"3279324","LAUNCH_DATE":"2021-03-24","TIME_SYSTEM":"UTC","MEAN_MOTION_DOT":"0.00002198","EPOCH":"2022-01-21T09:14:22.343712","OBJECT_NAME":"STARLINK-2295","SEMIMAJOR_AXIS":"6925.368","OBJECT_ID":"2021-024BM","SITE":"AFETR","MEAN_ANOMALY":"292.5533","COUNTRY_CODE":"US","MEAN_ELEMENT_THEORY":"SGP4","ARG_OF_PERICENTER":"67.5646","NORAD_CAT_ID":"48036","REV_AT_EPOCH":"4729","CLASSIFICATION_TYPE":"U","GP_ID":"194328781","EPHEMERIS_TYPE":"0","MEAN_MOTION":"15.06393509","BSTAR":"0.00016642000000","APOAPSIS":"548.477","REF_FRAME":"TEME","TLE_LINE2":"2 48036  53.0547 262.6668 0001796  67.5646 292.5533 15.06393509 47292","ELEMENT_SET_NO":"999","PERIOD":"95.593","PERIAPSIS":"545.990","RCS_SIZE":"LARGE"},{"RA_OF_ASC_NODE":"26.2603","TLE_LINE1":"1 48092U 21027A   22021.69501682  .00001428  00000-0  11473-3 0  9993","MEAN_MOTION_DDOT":"0.0000000000000","ECCENTRICITY":"0.00012740","DECAY_DATE":null,"INCLINATION":"53.0567","OBJECT_TYPE":"PAYLOAD","CENTER_NAME":"EARTH","LAUNCH_DATE":"2021-04-07","FILE":"3279549","TIME_SYSTEM":"UTC","MEAN_MOTION_DOT":"0.00001428","OBJECT_NAME":"STARLINK-2048","EPOCH":"2022-01-21T16:40:49.453248","SEMIMAJOR_AXIS":"6925.328","OBJECT_ID":"2021-027A","SITE":"AFETR","MEAN_ANOMALY":"275.0717","COUNTRY_CODE":"US","MEAN_ELEMENT_THEORY":"SGP4","ARG_OF_PERICENTER":"85.0417","NORAD_CAT_ID":"48092","REV_AT_EPOCH":"4577","GP_ID":"194337541","CLASSIFICATION_TYPE":"U","EPHEMERIS_TYPE":"0","MEAN_MOTION":"15.06406689","BSTAR":"0.00011473000000","APOAPSIS":"548.075","REF_FRAME":"TEME","TLE_LINE2":"2 48092  53.0567  26.2603 0001274  85.0417 275.0717 15.06406689 45776","ELEMENT_SET_NO":"999","PERIOD":"95.592","PERIAPSIS":"546.311","RCS_SIZE":"LARGE"},{"SEMIMAJOR_AXIS":"6925.343","OBJECT_ID":"2021-027B","MEAN_ANOMALY":"267.9323","SITE":"AFETR","ARG_OF_PERICENTER":"92.1820","COUNTRY_CODE":"US","MEAN_ELEMENT_THEORY":"SGP4","NORAD_CAT_ID":"48093","REV_AT_EPOCH":"4485","EPHEMERIS_TYPE":"0","GP_ID":"194335560","CLASSIFICATION_TYPE":"U","BSTAR":"-0.00005419100000","MEAN_MOTION":"15.06401769","TLE_LINE2":"2 48093  53.0564  91.7098 0001349  92.1820 267.9323 15.06401769 44854","REF_FRAME":"TEME","APOAPSIS":"548.142","PERIOD":"95.592","ELEMENT_SET_NO":"999","PERIAPSIS":"546.274","RCS_SIZE":"LARGE","TLE_LINE1":"1 48093U 21027B   22021.59870623 -.00001089  00000-0 -54191-4 0  9997","RA_OF_ASC_NODE":"91.7098","ECCENTRICITY":"0.00013490","MEAN_MOTION_DDOT":"0.0000000000000","DECAY_DATE":null,"INCLINATION":"53.0564","FILE":"3279477","LAUNCH_DATE":"2021-04-07","CENTER_NAME":"EARTH","OBJECT_TYPE":"PAYLOAD","TIME_SYSTEM":"UTC","MEAN_MOTION_DOT":"-0.00001089","EPOCH":"2022-01-21T14:22:08.218272","OBJECT_NAME":"STARLINK-2404"},{"EPOCH":"2022-01-21T13:39:44.103744","OBJECT_NAME":"STARLINK-2412","MEAN_MOTION_DOT":"-0.00000592","RA_OF_ASC_NODE":"101.8381","TLE_LINE1":"1 48094U 21027C   22021.56926046 -.00000592  00000-0 -20846-4 0  9994","MEAN_MOTION_DDOT":"0.0000000000000","ECCENTRICITY":"0.00010920","OBJECT_TYPE":"PAYLOAD","CENTER_NAME":"EARTH","FILE":"3279324","LAUNCH_DATE":"2021-04-07","TIME_SYSTEM":"UTC","INCLINATION":"53.0546","DECAY_DATE":null,"GP_ID":"194328288","CLASSIFICATION_TYPE":"U","EPHEMERIS_TYPE":"0","ELEMENT_SET_NO":"999","PERIOD":"95.593","PERIAPSIS":"546.516","RCS_SIZE":"LARGE","MEAN_MOTION":"15.06380999","BSTAR":"-0.00002084600000","APOAPSIS":"548.028","REF_FRAME":"TEME","TLE_LINE2":"2 48094  53.0546 101.8381 0001092  77.3598 282.7513 15.06380999 45112","OBJECT_ID":"2021-027C","SEMIMAJOR_AXIS":"6925.407","REV_AT_EPOCH":"4511","SITE":"AFETR","MEAN_ANOMALY":"282.7513","COUNTRY_CODE":"US","MEAN_ELEMENT_THEORY":"SGP4","NORAD_CAT_ID":"48094","ARG_OF_PERICENTER":"77.3598"}];
